STARLINK-4095           
1 53170U 22083AQ  23318.83264762 -.00000025  00000+0  16521-4 0  9992
2 53170  53.2166 356.2776 0001751  82.4239 277.6952 15.08837444 73731
STARLINK-4052           
1 53171U 22083AR  23318.74109127  .00001107  00000+0  87653-4 0  9991
2 53171  53.2195 331.4935 0001705  92.0589 268.0598 15.08836124 74061
STARLINK-4299           
1 53172U 22083AS  23318.82528569  .00000410  00000+0  43836-4 0  9997
2 53172  53.2181 356.2704 0001537  83.4329 276.6838 15.08838430 73721
STARLINK-4300           
1 53173U 22083AT  23319.04425479 -.00001326  00000+0 -65218-4 0  9996
2 53173  53.2178 335.3601 0001434  89.7050 270.4107 15.08843706 74676
STARLINK-4205           
1 53174U 22083AU  23319.13211890 -.00199726  00000+0 -12679-1 0  9999
2 53174  53.2168   9.9118 0001958 111.5080 248.6121 15.09426070 74205
STARLINK-4292           
1 53175U 22083AV  23318.86991715  .00000021  00000+0  19383-4 0  9999
2 53175  53.2185  11.1541 0001306  84.4722 275.6419 15.08837326 73521
STARLINK-4294           
1 53176U 22083AW  23318.41036090  .00000690  00000+0  61473-4 0  9996
2 53176  53.2183 348.1326 0001676  98.6638 261.4544 15.08842840 73807
STARLINK-4298           
1 53177U 22083AX  23318.77193585  .00000306  00000+0  37347-4 0  9996
2 53177  53.2179 336.5822 0001419  83.0584 277.0569 15.08838465 73996
STARLINK-4280           
1 53178U 22083AY  23318.86347271  .00000497  00000+0  49333-4 0  9999
2 53178  53.2184   1.1810 0001768  89.8700 270.2494 15.08840107 73657
STARLINK-4276           
1 53179U 22083AZ  23318.39238132  .00001482  00000+0  11116-3 0  9995
2 53179  53.2192 322.8976 0001400 103.4131 256.7018 15.08842416 74159
STARLINK-4258           
1 53180U 22083BA  23319.14681654 -.00000146  00000+0  89441-5 0  9997
2 53180  53.2180 319.7812 0001598  89.2589 270.8586 15.08844963 74907
STARLINK-4273           
1 53181U 22083BB  23318.74200923  .00000533  00000+0  51557-4 0  9994
2 53181  53.2183 321.5231 0001608  93.4715 266.6461 15.08843837 74204
STARLINK-4278           
1 53182U 22083BC  23319.03321327 -.00000266  00000+0  13655-5 0  9992
2 53182  53.2179 335.4109 0001598  87.7638 272.3537 15.08838947 74671
