[
    {
        "OBJECT_NAME": "STARLINK-4095",
        "OBJECT_ID": "2022-083AQ",
        "EPOCH": "2023-11-14T19:59:00.754368",
        "MEAN_MOTION": 15.08837444,
        "ECCENTRICITY": 0.0001751,
        "INCLINATION": 53.2166,
        "RA_OF_ASC_NODE": 356.2776,
        "ARG_OF_PERICENTER": 82.4239,
        "MEAN_ANOMALY": 277.6952,
        "EPHEMERIS_TYPE": 0,
        "CLASSIFICATION_TYPE": "U",
        "NORAD_CAT_ID": 53170,
        "ELEMENT_SET_NO": 999,
        "REV_AT_EPOCH": 7373,
        "BSTAR": 1.6521e-5,
        "MEAN_MOTION_DOT": -2.5e-7,
        "MEAN_MOTION_DDOT": 0
    },
    {
        "OBJECT_NAME": "STARLINK-4052",
        "OBJECT_ID": "2022-083AR",
        "EPOCH": "2023-11-14T17:47:10.285728",
        "MEAN_MOTION": 15.08836124,
        "ECCENTRICITY": 0.0001705,
        "INCLINATION": 53.2195,
        "RA_OF_ASC_NODE": 331.4935,
        "ARG_OF_PERICENTER": 92.0589,
        "MEAN_ANOMALY": 268.0598,
        "EPHEMERIS_TYPE": 0,
        "CLASSIFICATION_TYPE": "U",
        "NORAD_CAT_ID": 53171,
        "ELEMENT_SET_NO": 999,
        "REV_AT_EPOCH": 7406,
        "BSTAR": 8.7653e-5,
        "MEAN_MOTION_DOT": 1.107e-5,
        "MEAN_MOTION_DDOT": 0
    },
    {
        "OBJECT_NAME": "STARLINK-4299",
        "OBJECT_ID": "2022-083AS",
        "EPOCH": "2023-11-14T19:48:24.683616",
        "MEAN_MOTION": 15.0883843,
        "ECCENTRICITY": 0.0001537,
        "INCLINATION": 53.2181,
        "RA_OF_ASC_NODE": 356.2704,
        "ARG_OF_PERICENTER": 83.4329,
        "MEAN_ANOMALY": 276.6838,
        "EPHEMERIS_TYPE": 0,
        "CLASSIFICATION_TYPE": "U",
        "NORAD_CAT_ID": 53172,
        "ELEMENT_SET_NO": 999,
        "REV_AT_EPOCH": 7372,
        "BSTAR": 4.3836e-5,
        "MEAN_MOTION_DOT": 4.1e-6,
        "MEAN_MOTION_DDOT": 0
    },
    {
        "OBJECT_NAME": "STARLINK-4300",
        "OBJECT_ID": "2022-083AT",
        "EPOCH": "2023-11-15T01:03:43.613856",
        "MEAN_MOTION": 15.08843706,
        "ECCENTRICITY": 0.0001434,
        "INCLINATION": 53.2178,
        "RA_OF_ASC_NODE": 335.3601,
        "ARG_OF_PERICENTER": 89.705,
        "MEAN_ANOMALY": 270.4107,
        "EPHEMERIS_TYPE": 0,
        "CLASSIFICATION_TYPE": "U",
        "NORAD_CAT_ID": 53173,
        "ELEMENT_SET_NO": 999,
        "REV_AT_EPOCH": 7467,
        "BSTAR": -6.5218e-5,
        "MEAN_MOTION_DOT": -1.326e-5,
        "MEAN_MOTION_DDOT": 0
    },
    {
        "OBJECT_NAME": "STARLINK-4205",
        "OBJECT_ID": "2022-083AU",
        "EPOCH": "2023-11-15T03:10:15.072960",
        "MEAN_MOTION": 15.0942607,
        "ECCENTRICITY": 0.0001958,
        "INCLINATION": 53.2168,
        "RA_OF_ASC_NODE": 9.9118,
        "ARG_OF_PERICENTER": 111.508,
        "MEAN_ANOMALY": 248.6121,
        "EPHEMERIS_TYPE": 0,
        "CLASSIFICATION_TYPE": "U",
        "NORAD_CAT_ID": 53174,
        "ELEMENT_SET_NO": 999,
        "REV_AT_EPOCH": 7420,
        "BSTAR": -0.012679,
        "MEAN_MOTION_DOT": -0.00199726,
        "MEAN_MOTION_DDOT": 0
    },
    {
        "OBJECT_NAME": "STARLINK-4292",
        "OBJECT_ID": "2022-083AV",
        "EPOCH": "2023-11-14T20:52:40.841760",
        "MEAN_MOTION": 15.08837326,
        "ECCENTRICITY": 0.0001306,
        "INCLINATION": 53.2185,
        "RA_OF_ASC_NODE": 11.1541,
        "ARG_OF_PERICENTER": 84.4722,
        "MEAN_ANOMALY": 275.6419,
        "EPHEMERIS_TYPE": 0,
        "CLASSIFICATION_TYPE": "U",
        "NORAD_CAT_ID": 53175,
        "ELEMENT_SET_NO": 999,
        "REV_AT_EPOCH": 7352,
        "BSTAR": 1.9383e-5,
        "MEAN_MOTION_DOT": 2.1e-7,
        "MEAN_MOTION_DDOT": 0
    },
    {
        "OBJECT_NAME": "STARLINK-4294",
        "OBJECT_ID": "2022-083AW",
        "EPOCH": "2023-11-14T09:50:55.181760",
        "MEAN_MOTION": 15.0884284,
        "ECCENTRICITY": 0.0001676,
        "INCLINATION": 53.2183,
        "RA_OF_ASC_NODE": 348.1326,
        "ARG_OF_PERICENTER": 98.6638,
        "MEAN_ANOMALY": 261.4544,
        "EPHEMERIS_TYPE": 0,
        "CLASSIFICATION_TYPE": "U",
        "NORAD_CAT_ID": 53176,
        "ELEMENT_SET_NO": 999,
        "REV_AT_EPOCH": 7380,
        "BSTAR": 6.1473e-5,
        "MEAN_MOTION_DOT": 6.9e-6,
        "MEAN_MOTION_DDOT": 0
    },
    {
        "OBJECT_NAME": "STARLINK-4298",
        "OBJECT_ID": "2022-083AX",
        "EPOCH": "2023-11-14T18:31:35.257440",
        "MEAN_MOTION": 15.08838465,
        "ECCENTRICITY": 0.0001419,
        "INCLINATION": 53.2179,
        "RA_OF_ASC_NODE": 336.5822,
        "ARG_OF_PERICENTER": 83.0584,
        "MEAN_ANOMALY": 277.0569,
        "EPHEMERIS_TYPE": 0,
        "CLASSIFICATION_TYPE": "U",
        "NORAD_CAT_ID": 53177,
        "ELEMENT_SET_NO": 999,
        "REV_AT_EPOCH": 7399,
        "BSTAR": 3.7347e-5,
        "MEAN_MOTION_DOT": 3.06e-6,
        "MEAN_MOTION_DDOT": 0
    },
    {
        "OBJECT_NAME": "STARLINK-4280",
        "OBJECT_ID": "2022-083AY",
        "EPOCH": "2023-11-14T20:43:24.042144",
        "MEAN_MOTION": 15.08840107,
        "ECCENTRICITY": 0.0001768,
        "INCLINATION": 53.2184,
        "RA_OF_ASC_NODE": 1.181,
        "ARG_OF_PERICENTER": 89.87,
        "MEAN_ANOMALY": 270.2494,
        "EPHEMERIS_TYPE": 0,
        "CLASSIFICATION_TYPE": "U",
        "NORAD_CAT_ID": 53178,
        "ELEMENT_SET_NO": 999,
        "REV_AT_EPOCH": 7365,
        "BSTAR": 4.9333e-5,
        "MEAN_MOTION_DOT": 4.97e-6,
        "MEAN_MOTION_DDOT": 0
    },
    {
        "OBJECT_NAME": "STARLINK-4276",
        "OBJECT_ID": "2022-083AZ",
        "EPOCH": "2023-11-14T09:25:01.746048",
        "MEAN_MOTION": 15.08842416,
        "ECCENTRICITY": 0.00014,
        "INCLINATION": 53.2192,
        "RA_OF_ASC_NODE": 322.8976,
        "ARG_OF_PERICENTER": 103.4131,
        "MEAN_ANOMALY": 256.7018,
        "EPHEMERIS_TYPE": 0,
        "CLASSIFICATION_TYPE": "U",
        "NORAD_CAT_ID": 53179,
        "ELEMENT_SET_NO": 999,
        "REV_AT_EPOCH": 7415,
        "BSTAR": 0.00011116,
        "MEAN_MOTION_DOT": 1.482e-5,
        "MEAN_MOTION_DDOT": 0
    },
    {
        "OBJECT_NAME": "STARLINK-4258",
        "OBJECT_ID": "2022-083BA",
        "EPOCH": "2023-11-15T03:31:24.949056",
        "MEAN_MOTION": 15.08844963,
        "ECCENTRICITY": 0.0001598,
        "INCLINATION": 53.218,
        "RA_OF_ASC_NODE": 319.7812,
        "ARG_OF_PERICENTER": 89.2589,
        "MEAN_ANOMALY": 270.8586,
        "EPHEMERIS_TYPE": 0,
        "CLASSIFICATION_TYPE": "U",
        "NORAD_CAT_ID": 53180,
        "ELEMENT_SET_NO": 999,
        "REV_AT_EPOCH": 7490,
        "BSTAR": 8.9441e-6,
        "MEAN_MOTION_DOT": -1.46e-6,
        "MEAN_MOTION_DDOT": 0
    },
    {
        "OBJECT_NAME": "STARLINK-4273",
        "OBJECT_ID": "2022-083BB",
        "EPOCH": "2023-11-14T17:48:29.597472",
        "MEAN_MOTION": 15.08843837,
        "ECCENTRICITY": 0.0001608,
        "INCLINATION": 53.2183,
        "RA_OF_ASC_NODE": 321.5231,
        "ARG_OF_PERICENTER": 93.4715,
        "MEAN_ANOMALY": 266.6461,
        "EPHEMERIS_TYPE": 0,
        "CLASSIFICATION_TYPE": "U",
        "NORAD_CAT_ID": 53181,
        "ELEMENT_SET_NO": 999,
        "REV_AT_EPOCH": 7420,
        "BSTAR": 5.1557e-5,
        "MEAN_MOTION_DOT": 5.33e-6,
        "MEAN_MOTION_DDOT": 0
    },
    {
        "OBJECT_NAME": "STARLINK-4278",
        "OBJECT_ID": "2022-083BC",
        "EPOCH": "2023-11-15T00:47:49.626528",
        "MEAN_MOTION": 15.08838947,
        "ECCENTRICITY": 0.0001598,
        "INCLINATION": 53.2179,
        "RA_OF_ASC_NODE": 335.4109,
        "ARG_OF_PERICENTER": 87.7638,
        "MEAN_ANOMALY": 272.3537,
        "EPHEMERIS_TYPE": 0,
        "CLASSIFICATION_TYPE": "U",
        "NORAD_CAT_ID": 53182,
        "ELEMENT_SET_NO": 999,
        "REV_AT_EPOCH": 7467,
        "BSTAR": 1.3655e-6,
        "MEAN_MOTION_DOT": -2.66e-6,
        "MEAN_MOTION_DDOT": 0
    }
]
